1 49275U 98067SU  22230.83224626  .00697374  24401-3  10725-2 0  9996
2 49275  51.6261 353.3338 0011597 318.4056 124.9980 16.03565210 49542
1 49275U 98067SU  22230.89703822  .00677837  23027-3  10415-2 0  9993
2 49275  51.6224 352.9925 0010232 317.1794 140.4953 16.03611191 49552
1 49275U 98067SU  22231.39009997  .00723331  26648-3  10635-2 0  9998
2 49275  51.6235 350.3427 0010257 319.2142 107.5713 16.04341529 49633
1 49275U 98067SU  22231.71441419  .00739670  28132-3  10552-2 0  9994
2 49275  51.6243 348.6019 0011547 320.2348 181.1971 16.04807657 49680
1 49275U 98067SU  22232.20026644  .00756557  29841-3  10333-2 0  9996
2 49275  51.6251 345.9865 0011650 323.1774 107.7018 16.05513905 49764
1 49275U 98067SU  22232.57747336  .00726025  27559-3  96640-3 0  9991
2 49275  51.6253 343.9592 0010488 324.0171 128.6457 16.05954042 49827
1 49275U 98067SU  22232.82575494  .00733370  28311-3  95384-3 0  9995
2 49275  51.6240 342.6221 0011317 327.8858 121.3282 16.06305607 49861
1 49275U 98067SU  22232.89026711  .00731388  28189-3  94590-3 0  9993
2 49275  51.6244 342.2750 0011496 328.0765 134.4475 16.06390982 49876
1 49275U 98067SU  22233.50930905  .00729620  28431-3  89681-3 0  9992
2 49275  51.6248 338.9377 0010879 324.3034 121.4057 16.07213837 49976
1 49275U 98067SU  22233.70661775  .00747760  30066-3  90249-3 0  9994
2 49275  51.6231 337.8767 0012626 330.5227 177.6024 16.07456425 50009
1 49275U 98067SU  22234.12731304  .00720932  28106-3  83909-3 0  9996
2 49275  51.6231 335.6048 0012274 331.8074  92.9155 16.08031138 50072
1 49275U 98067SU  22234.75126218  .00749167  30959-3  82352-3 0  9998
2 49275  51.6221 332.2312 0011863 332.8428 107.3451 16.08930781 50178
1 49275U 98067SU  22235.12235154  .00769590  33109-3  81643-3 0  9994
2 49275  51.6235 330.2230 0011515 333.2757  98.1679 16.09487754 50238
1 49275U 98067SU  22235.54709696  .00713828  28466-3  73267-3 0  9993
2 49275  51.6248 327.9275 0011551 341.0120  33.3725 16.09981452 50300
1 49275U 98067SU  22235.80978098  .00740987  31028-3  73999-3 0  9992
2 49275  51.6225 326.5005 0012135 337.0240 121.1035 16.10381727 50343
1 49275U 98067SU  22236.11470858  .00738403  31026-3  71699-3 0  9991
2 49275  51.6262 324.8518 0012451 336.5670  90.7328 16.10793262 50398
1 49275U 98067SU  22236.42205675  .00749401  32276-3  70724-3 0  9994
2 49275  51.6222 323.1828 0011981 339.9264  71.0973 16.11232991 50445
1 49275U 98067SU  22236.49447631  .00753774  32744-3  70635-3 0  9990
2 49275  51.6218 322.7888 0011898 339.8842 131.5096 16.11340945 50457
1 49275U 98067SU  22237.22396350  .00817473  39885-3  70886-3 0  9991
2 49275  51.6212 318.8283 0011481 341.6009  45.8910 16.12505293 50575
1 49275U 98067SU  22237.48301115  .00843973  43141-3  71017-3 0  9995
2 49275  51.6210 317.4218 0011651 343.1717 109.3409 16.12942659 50613
1 49275U 98067SU  22237.67416638  .00870372  46496-3  71567-3 0  9992
2 49275  51.6210 316.3814 0011519 343.3839 139.9926 16.13286208 50641
1 49275U 98067SU  22238.22667666  .00950122  57847-3  72642-3 0  9992
2 49275  51.6204 313.3731 0011900 345.4357 110.1336 16.14336824 50738
1 49275U 98067SU  22238.60613193  .01007584  67283-3  73311-3 0  9995
2 49275  51.6214 311.3047 0010202 346.7558 156.1544 16.15103798 50798
1 49275U 98067SU  22238.78464442  .01080209  79965-3  75929-3 0  9997
2 49275  51.6220 310.3301 0012147 349.9045 111.8727 16.15557577 50826
1 49275U 98067SU  22239.46442544  .01164501  11792-4  71189-3 0  9999
2 49275  51.6118 306.6021 0012375 352.5412 107.8451 16.17239228 50933
1 49275U 98067SU  22239.59565711  .01186360  11800-4  70985-3 0  9995
2 49275  51.6152 305.8950 0010601 355.7657 149.3117 16.17581003 50952
1 49275U 98067SU  22240.14202222  .01419559  11859-4  73152-3 0  9995
2 49275  51.6325 302.9135 0010751  33.9341  57.7565 16.19532053 51041
1 49275U 98067SU  22240.58303838  .02239344  11932-4  94372-3 0  9990
2 49275  51.6308 300.4539 0010604 348.7228 158.4893 16.22060412 51111
1 49275U 98067SU  22241.30384514  .03220394  12055-4  94372-3 0  9994
2 49275  51.6127 296.4958 0007950 341.9682  62.7016 16.26423461 51236
1 49275U 98067SU  22241.56689426  .04119143  12126-4  98420-3 0  9999
2 49275  51.6180 295.0333 0007514 345.0475 162.0147 16.28690742 51271
1 49275U 98067SU  22241.62602833  .04314987  12146-4  97553-3 0  9994
2 49275  51.6168 294.6972 0007875 342.5886 151.5269 16.29274145 51284
1 49275U 98067SU  22242.34761602  .15703757  12488-4  82169-3 0  9999
2 49275  51.6104 290.6452 0002934 291.1706 132.0219 16.42577211 51402
1 49275U 98067SU  22242.48134796  .24583722  12476-4  25807-3 0  9993
2 49275  51.6069 289.8805 0011981 165.6488 331.0164 16.49780575 51426
